[{"OBJECT_NAME":"TEVEL2-3","OBJECT_ID":"2025-052J","EPOCH":"2026-03-09T15:29:22.754400","MEAN_MOTION":15.30377031,"ECCENTRICITY":0.0004761,"INCLINATION":97.3994,"RA_OF_ASC_NODE":324.7775,"ARG_OF_PERICENTER":105.7353,"MEAN_ANOMALY":254.4413,"EPHEMERIS_TYPE":0,"CLASSIFICATION_TYPE":"U","NORAD_CAT_ID":63218,"ELEMENT_SET_NO":999,"REV_AT_EPOCH":5485,"BSTAR":0.00069446,"MEAN_MOTION_DOT":0.00020365,"MEAN_MOTION_DDOT":0},{"OBJECT_NAME":"STARLINK-35394","OBJECT_ID":"2025-232U","EPOCH":"2026-03-09T12:40:25.318848","MEAN_MOTION":15.30199264,"ECCENTRICITY":0.000127,"INCLINATION":53.1578,"RA_OF_ASC_NODE":104.458,"ARG_OF_PERICENTER":93.356,"MEAN_ANOMALY":266.7586,"EPHEMERIS_TYPE":0,"CLASSIFICATION_TYPE":"U","NORAD_CAT_ID":66023,"ELEMENT_SET_NO":999,"REV_AT_EPOCH":2341,"BSTAR":0.0011406435,"MEAN_MOTION_DOT":0.00033575,"MEAN_MOTION_DDOT":0}]
